[{"OBJECT_NAME":"STARLINK-30322","OBJECT_ID":"2023-124H","EPOCH":"2026-03-09T16:52:47.664480","MEAN_MOTION":15.30188184,"ECCENTRICITY":0.0001278,"INCLINATION":53.1606,"RA_OF_ASC_NODE":207.0037,"ARG_OF_PERICENTER":66.9385,"MEAN_ANOMALY":293.1751,"EPHEMERIS_TYPE":0,"CLASSIFICATION_TYPE":"U","NORAD_CAT_ID":57670,"ELEMENT_SET_NO":999,"REV_AT_EPOCH":14356,"BSTAR":-9.648594e-6,"MEAN_MOTION_DOT":-6.45e-6,"MEAN_MOTION_DDOT":0},{"OBJECT_NAME":"TEVEL2-2","OBJECT_ID":"2025-052K","EPOCH":"2026-03-09T15:33:48.895776","MEAN_MOTION":15.30343745,"ECCENTRICITY":0.0004693,"INCLINATION":97.3987,"RA_OF_ASC_NODE":324.77,"ARG_OF_PERICENTER":105.793,"MEAN_ANOMALY":254.3828,"EPHEMERIS_TYPE":0,"CLASSIFICATION_TYPE":"U","NORAD_CAT_ID":63219,"ELEMENT_SET_NO":999,"REV_AT_EPOCH":5485,"BSTAR":0.00069428,"MEAN_MOTION_DOT":0.00020339,"MEAN_MOTION_DDOT":0}]
